CTC2_L_00379001-01
1 71570U 23336IX  26070.40847222  .00000000  00000+0  00000-0 0  9990
2 71570  45.0000   0.0000 0000000   0.0000   0.0000 13.03091871    15
CTC2_L_00379001-02
1 71571U 26363YJ  26070.40847222  .00000000  00000+0  00000-0 0  9994
2 71571  45.0000   0.0000 0000000   0.0000  90.0000 13.03091871    15
CTC2_L_00379001-03
1 71572U 25591SC  26070.40847222  .00000000  00000+0  00000-0 0  9997
2 71572  45.0000   0.0000 0000000   0.0000 180.0000 13.03091871    16
CTC2_L_00379001-04
1 71573U 22594LT  26070.40847222  .00000000  00000+0  00000-0 0  9998
2 71573  45.0000   0.0000 0000000   0.0000 270.0000 13.03091871    17
CTC2_L_00379002-01
1 71574U 26947HF  26070.40847222  .00000000  00000+0  00000-0 0  9995
2 71574  45.0000  12.0000 0000000   0.0000  12.0000 13.03091871    15
CTC2_L_00379002-02
1 71575U 26287PZ  26070.40847222  .00000000  00000+0  00000-0 0  9993
2 71575  45.0000  12.0000 0000000   0.0000 102.0000 13.03091871    16
CTC2_L_00379002-03
1 71576U 24361OQ  26070.40847222  .00000000  00000+0  00000-0 0  9995
2 71576  45.0000  12.0000 0000000   0.0000 192.0000 13.03091871    16
CTC2_L_00379002-04
1 71577U 24279XK  26070.40847222  .00000000  00000+0  00000-0 0  9994
2 71577  45.0000  12.0000 0000000   0.0000 282.0000 13.03091871    17
CTC2_L_00379003-01
1 71578U 25720QW  26070.40847222  .00000000  00000+0  00000-0 0  9997
2 71578  45.0000  24.0000 0000000   0.0000  24.0000 13.03091871    15
CTC2_L_00379003-02
1 71579U 23650FQ  26070.40847222  .00000000  00000+0  00000-0 0  9998
2 71579  45.0000  24.0000 0000000   0.0000 114.0000 13.03091871    16
CTC2_L_00379003-03
1 71580U 22617LY  26070.40847222  .00000000  00000+0  00000-0 0  9992
2 71580  45.0000  24.0000 0000000   0.0000 204.0000 13.03091871    18
CTC2_L_00379003-04
1 71581U 24325AR  26070.40847222  .00000000  00000+0  00000-0 0  9991
2 71581  45.0000  24.0000 0000000   0.0000 294.0000 13.03091871    18
CTC2_L_00379004-01
1 71582U 26026WO  26070.40847222  .00000000  00000+0  00000-0 0  9992
2 71582  45.0000  36.0000 0000000   0.0000  36.0000 13.03091871    16
CTC2_L_00379004-02
1 71583U 25713OX  26070.40847222  .00000000  00000+0  00000-0 0  9995
2 71583  45.0000  36.0000 0000000   0.0000 126.0000 13.03091871    17
CTC2_L_00379004-03
1 71584U 22629JI  26070.40847222  .00000000  00000+0  00000-0 0  9999
2 71584  45.0000  36.0000 0000000   0.0000 216.0000 13.03091871    18
CTC2_L_00379004-04
1 71585U 22785ET  26070.40847222  .00000000  00000+0  00000-0 0  9993
2 71585  45.0000  36.0000 0000000   0.0000 306.0000 13.03091871    19
CTC2_L_00379005-01
1 71586U 24168OI  26070.40847222  .00000000  00000+0  00000-0 0  9991
2 71586  45.0000  48.0000 0000000   0.0000  48.0000 13.03091871    16
CTC2_L_00379005-02
1 71587U 22078IE  26070.40847222  .00000000  00000+0  00000-0 0  9990
2 71587  45.0000  48.0000 0000000   0.0000 138.0000 13.03091871    17
CTC2_L_00379005-03
1 71588U 23690L   26070.40847222  .00000000  00000+0  00000-0 0  9992
2 71588  45.0000  48.0000 0000000   0.0000 228.0000 13.03091871    18
CTC2_L_00379005-04
1 71589U 22920UN  26070.40847222  .00000000  00000+0  00000-0 0  9998
2 71589  45.0000  48.0000 0000000   0.0000 318.0000 13.03091871    19
CTC2_L_00379006-01
1 71590U 26596UT  26070.40847222  .00000000  00000+0  00000-0 0  9993
2 71590  45.0000  60.0000 0000000   0.0000  60.0000 13.03091871    19
CTC2_L_00379006-02
1 71591U 25020RT  26070.40847222  .00000000  00000+0  00000-0 0  9995
2 71591  45.0000  60.0000 0000000   0.0000 150.0000 13.03091871    10
CTC2_L_00379006-03
1 71592U 25778IG  26070.40847222  .00000000  00000+0  00000-0 0  9996
2 71592  45.0000  60.0000 0000000   0.0000 240.0000 13.03091871    11
CTC2_L_00379006-04
1 71593U 22027NG  26070.40847222  .00000000  00000+0  00000-0 0  9991
2 71593  45.0000  60.0000 0000000   0.0000 330.0000 13.03091871    12
CTC2_L_00379007-01
1 71594U 24838H   26070.40847222  .00000000  00000+0  00000-0 0  9994
2 71594  45.0000  72.0000 0000000   0.0000  72.0000 13.03091871    19
CTC2_L_00379007-02
1 71595U 22209RD  26070.40847222  .00000000  00000+0  00000-0 0  9995
2 71595  45.0000  72.0000 0000000   0.0000 162.0000 13.03091871    10
CTC2_L_00379007-03
1 71596U 23187FJ  26070.40847222  .00000000  00000+0  00000-0 0  9992
2 71596  45.0000  72.0000 0000000   0.0000 252.0000 13.03091871    11
CTC2_L_00379007-04
1 71597U 24794IN  26070.40847222  .00000000  00000+0  00000-0 0  9998
2 71597  45.0000  72.0000 0000000   0.0000 342.0000 13.03091871    12
CTC2_L_00379008-01
1 71598U 22246VA  26070.40847222  .00000000  00000+0  00000-0 0  9999
2 71598  45.0000  84.0000 0000000   0.0000  84.0000 13.03091871    19
CTC2_L_00379008-02
1 71599U 23139XC  26070.40847222  .00000000  00000+0  00000-0 0  9992
2 71599  45.0000  84.0000 0000000   0.0000 174.0000 13.03091871    10
CTC2_L_00379008-03
1 71600U 25496XO  26070.40847222  .00000000  00000+0  00000-0 0  9993
2 71600  45.0000  84.0000 0000000   0.0000 264.0000 13.03091871    13
CTC2_L_00379008-04
1 71601U 26588JA  26070.40847222  .00000000  00000+0  00000-0 0  9997
2 71601  45.0000  84.0000 0000000   0.0000 354.0000 13.03091871    14
CTC2_L_00379009-01
1 71602U 23146MH  26070.40847222  .00000000  00000+0  00000-0 0  9995
2 71602  45.0000  96.0000 0000000   0.0000  96.0000 13.03091871    11
CTC2_L_00379009-02
1 71603U 23896DI  26070.40847222  .00000000  00000+0  00000-0 0  9998
2 71603  45.0000  96.0000 0000000   0.0000 186.0000 13.03091871    12
CTC2_L_00379009-03
1 71604U 25938NY  26070.40847222  .00000000  00000+0  00000-0 0  9998
2 71604  45.0000  96.0000 0000000   0.0000 276.0000 13.03091871    13
CTC2_L_00379009-04
1 71605U 22733RU  26070.40847222  .00000000  00000+0  00000-0 0  9999
2 71605  45.0000  96.0000 0000000   0.0000   6.0000 13.03091871    15
CTC2_L_00379010-01
1 71606U 22264WW  26070.40847222  .00000000  00000+0  00000-0 0  9999
2 71606  45.0000 108.0000 0000000   0.0000 108.0000 13.03091871    13
CTC2_L_00379010-02
1 71607U 23162RW  26070.40847222  .00000000  00000+0  00000-0 0  9998
2 71607  45.0000 108.0000 0000000   0.0000 198.0000 13.03091871    13
CTC2_L_00379010-03
1 71608U 23354BB  26070.40847222  .00000000  00000+0  00000-0 0  9992
2 71608  45.0000 108.0000 0000000   0.0000 288.0000 13.03091871    14
CTC2_L_00379010-04
1 71609U 22317GP  26070.40847222  .00000000  00000+0  00000-0 0  9991
2 71609  45.0000 108.0000 0000000   0.0000  18.0000 13.03091871    16
CTC2_L_00379011-01
1 71610U 22691K   26070.40847222  .00000000  00000+0  00000-0 0  9998
2 71610  45.0000 120.0000 0000000   0.0000 120.0000 13.03091871    16
CTC2_L_00379011-02
1 71611U 22469RK  26070.40847222  .00000000  00000+0  00000-0 0  9992
2 71611  45.0000 120.0000 0000000   0.0000 210.0000 13.03091871    17
CTC2_L_00379011-03
1 71612U 25829HN  26070.40847222  .00000000  00000+0  00000-0 0  9996
2 71612  45.0000 120.0000 0000000   0.0000 300.0000 13.03091871    18
CTC2_L_00379011-04
1 71613U 25240GS  26070.40847222  .00000000  00000+0  00000-0 0  9994
2 71613  45.0000 120.0000 0000000   0.0000  30.0000 13.03091871    19
CTC2_L_00379012-01
1 71614U 24236ZJ  26070.40847222  .00000000  00000+0  00000-0 0  9999
2 71614  45.0000 132.0000 0000000   0.0000 132.0000 13.03091871    16
CTC2_L_00379012-02
1 71615U 25892XD  26070.40847222  .00000000  00000+0  00000-0 0  9999
2 71615  45.0000 132.0000 0000000   0.0000 222.0000 13.03091871    17
CTC2_L_00379012-03
1 71616U 23048MV  26070.40847222  .00000000  00000+0  00000-0 0  9991
2 71616  45.0000 132.0000 0000000   0.0000 312.0000 13.03091871    18
CTC2_L_00379012-04
1 71617U 26978EL  26070.40847222  .00000000  00000+0  00000-0 0  9997
2 71617  45.0000 132.0000 0000000   0.0000  42.0000 13.03091871    19
CTC2_L_00379013-01
1 71618U 23758EV  26070.40847222  .00000000  00000+0  00000-0 0  9991
2 71618  45.0000 144.0000 0000000   0.0000 144.0000 13.03091871    16
CTC2_L_00379013-02
1 71619U 22640YX  26070.40847222  .00000000  00000+0  00000-0 0  9991
2 71619  45.0000 144.0000 0000000   0.0000 234.0000 13.03091871    17
CTC2_L_00379013-03
1 71620U 24206TE  26070.40847222  .00000000  00000+0  00000-0 0  9993
2 71620  45.0000 144.0000 0000000   0.0000 324.0000 13.03091871    19
CTC2_L_00379013-04
1 71621U 23339VC  26070.40847222  .00000000  00000+0  00000-0 0  9990
2 71621  45.0000 144.0000 0000000   0.0000  54.0000 13.03091871    10
CTC2_L_00379014-01
1 71622U 22818VQ  26070.40847222  .00000000  00000+0  00000-0 0  9992
2 71622  45.0000 156.0000 0000000   0.0000 156.0000 13.03091871    17
CTC2_L_00379014-02
1 71623U 26997N   26070.40847222  .00000000  00000+0  00000-0 0  9995
2 71623  45.0000 156.0000 0000000   0.0000 246.0000 13.03091871    18
CTC2_L_00379014-03
1 71624U 24474GO  26070.40847222  .00000000  00000+0  00000-0 0  9994
2 71624  45.0000 156.0000 0000000   0.0000 336.0000 13.03091871    19
CTC2_L_00379014-04
1 71625U 23064GD  26070.40847222  .00000000  00000+0  00000-0 0  9999
2 71625  45.0000 156.0000 0000000   0.0000  66.0000 13.03091871    10
CTC2_L_00379015-01
1 71626U 26611IW  26070.40847222  .00000000  00000+0  00000-0 0  9991
2 71626  45.0000 168.0000 0000000   0.0000 168.0000 13.03091871    17
CTC2_L_00379015-02
1 71627U 22262NR  26070.40847222  .00000000  00000+0  00000-0 0  9990
2 71627  45.0000 168.0000 0000000   0.0000 258.0000 13.03091871    18
CTC2_L_00379015-03
1 71628U 25450KU  26070.40847222  .00000000  00000+0  00000-0 0  9993
2 71628  45.0000 168.0000 0000000   0.0000 348.0000 13.03091871    19
CTC2_L_00379015-04
1 71629U 25484RA  26070.40847222  .00000000  00000+0  00000-0 0  9991
2 71629  45.0000 168.0000 0000000   0.0000  78.0000 13.03091871    10
CTC2_L_00379016-01
1 71630U 26522SE  26070.40847222  .00000000  00000+0  00000-0 0  9997
2 71630  45.0000 180.0000 0000000   0.0000 180.0000 13.03091871    10
CTC2_L_00379016-02
1 71631U 22144OZ  26070.40847222  .00000000  00000+0  00000-0 0  9994
2 71631  45.0000 180.0000 0000000   0.0000 270.0000 13.03091871    11
